#dP2021  6 24  0  0  0.00000000      97 __u+U IGS14 FIT  IAC
## 2163 345600.00000000   900.00000000 59389 0.0000000000000
+  122   C01C02C04C05C06C07C08C09C10C11C12C13C14C16C19C20C21
+        C22C23C24C25C26C27C28C29C30C32C33C34C35C36C37C38C39
+        C40C41C42C43C44C45C46C60E01E02E03E04E05E07E08E09E11
+        E12E13E14E15E18E19E21E24E25E26E27E30E31E33E36G01G02
+        G03G04G05G06G07G08G09G10G12G13G14G15G16G17G18G19G20
+        G21G22G23G24G25G26G27G28G29G30G31G32J01J02J03J07R01
+        R02R03R04R05R07R08R09R11R12R13R14R15R16R17R18R19R20
+        R21R22R24  0  0  0  0  0  0  0  0  0  0  0  0  0  0
++        13 13 13 13  9 11  9  8  9  8  8  9  8  9  7  7  7
++         7  7  7  7  7  7  7  7  7  8  7  7  7  8  7  8  8
++         8  7  7  7  7  7  8 13  4  4  4  4  4  5  4  4  4
++         4  4  4  4  4  4  4  4  4  4  4  4  4  5  4  3  3
++         3  3  3  3  3  3  3  3  3  3  3  3  4  4  3  4  3
++         3  3  3  3  3  3  3  4  3  3  4  3  8  8  8 13  7
++         5  5  6  6  5  5  5  7  5  7  5  5  7  5  6  7  7
++         6  8  5  0  0  0  0  0  0  0  0  0  0  0  0  0  0
%c M  cc GPS ccc cccc cccc cccc cccc ccccc ccccc ccccc ccccc
%c cc cc ccc ccc cccc cccc cccc cccc ccccc ccccc ccccc ccccc
%f  1.2500000  1.025000000  0.00000000000  0.000000000000000
%f  0.0000000  0.000000000  0.00000000000  0.000000000000000
%i    0    0    0    0      0      0      0      0         0
%i    0    0    0    0      0      0      0      0         0
/* INFORMATION & ANALYSIS CENTER (IAC)            FINAL DATA
/* S/V CLOCKS ARE ALIGNED TO GNSS TIME                      
/* G:C1WC2W R:C1PC2P E:C1XC5X C:C2IC6I J:C1CC2S             
/* PCV:IGS14_2148 OL/AL:FES2004  NONE     YN ORB:CoN CLK:CoN
*  2021 06 24 11  0  0.00000000
PC01 -34324.184562  24455.374534   -156.922483   -339.348115
PC02   4347.120147  41935.896511   1432.961207    566.089349
PC04 -39610.329759  14436.093058   -109.898734   -273.484401
PC05  21843.149072  36047.097787   1085.833342    -75.304963
PC06 -15426.716986  38347.058955  10055.002566    541.498997
PC07 -10367.807377  24808.001025 -32164.667163     39.759526
PC08 -23056.980242  24169.768202  25603.601947   -897.028250
PC09  -6783.453457  41512.058193  -5061.758464    424.429477
PC10   4491.664602  30985.679255 -27803.639017    -26.258128
PC11  -5567.668374 -20816.263749 -17701.691252    418.349007
PC12   6820.087521 -26991.085096  -2068.976357    833.535197
PC13 -10615.674082  25688.864972  31720.534400    311.726641
PC14 -16554.352505 -21973.763459  -4840.457908    870.053097
PC16 -13134.253494  39508.145051   7501.017246   -919.303755
PC19  21285.714447  17421.234620  -4606.880639    884.192496
PC20  10435.636037  22852.119873  12131.355773   -865.872904
PC21   7217.667623 -14891.642115 -22453.222794   -935.123694
PC22  20112.447127   1684.928289 -19251.592794   -949.196389
PC23 -27349.575102   5320.583519   1610.350896   -946.363816
PC24  -1179.636344 -16339.664323  22591.495821   -907.495270
PC25 -21105.167116  -6885.396859  16896.554035   -896.160199
PC26  17156.178455 -15834.422127  15306.451308    888.215738
PC27 -12446.079633  23999.911595  -6975.209118    553.448877
PC28 -17241.503225   8031.177843 -20420.223124    -58.581907
PC29  12409.844700  12148.287017  21831.725716    410.389188
PC30    240.124480  26042.571195  10042.299129    471.757249
PC32  -7180.463424  14920.966925  22478.052695   -924.377861
PC33 -21397.982130 -17340.642271   4574.918580   -938.173388
PC34   -770.706760 -25743.468739 -10730.876604   -643.269320
PC35  17004.078294  -8191.529957  20533.024406   -218.501858
PC36  20676.432403   7583.080053 -17107.093061   -728.826928
PC37 -18284.131885  15141.090961 -14635.901160   -871.416680
PC38 -20682.277364  26301.397776  25571.919342    157.307173
PC39  -9504.181215  40691.121556   6213.458528     31.959628
PC40   -446.354999  27018.959449 -32297.707454    174.043350
PC41 -20306.984995  -1889.541043  19098.796024   -950.872179
PC42  -9868.236017 -22811.536778 -12663.137230   -914.844160
PC43 -12213.683869 -12756.063960 -21613.382817   -790.880622
PC44  11733.218241 -24282.297430   7095.812438    255.531571
PC45  27330.117033  -5492.220625  -1454.666507    475.647043
PC46   2436.349768  15966.495402 -22744.888556    209.745030
PC60   7244.647616  41526.311590    -13.269594 999999.999999
PE01  17311.343030  16448.587627 -17487.780815  -1135.964977
PE02 -17422.207288 -16417.758924  17404.691069    228.296380
PE03 -12370.831765 -26116.452017   6452.068936   -445.400866
PE04  18354.997377  10109.043277 -20893.803861   -799.141724
PE05    985.533108 -27031.937241 -12018.203728   -270.453218
PE07 -13630.717152  12175.091916  23292.533786   -553.670408
PE08 -18304.900103  -9702.740146  21153.622465   5980.962938
PE09  13328.801729 -12415.898366 -23325.904207   5622.982249
PE11  22658.673790 -17932.698585   6365.539196   5809.700255
PE12  20091.517013   -605.151729  21714.644104   5144.385582
PE13 -22704.066302  17732.028321  -6819.660960    418.155549
PE14 -18882.203477 -14518.608631 -22214.820544  -1477.122976
PE15 -20070.656636    764.689318 -21745.107453    807.094791
PE18  13498.449796  10238.144089  16083.245257  -1618.181547
PE19  11036.620028  27121.875669  -4320.615071    310.175098
PE21  -3255.457194  16231.503171 -24536.424419   -672.466856
PE24  23461.163155  -5995.919710  17026.401209   -971.863408
PE25   3491.188697 -16180.826383  24547.244067   -537.907848
PE26 -11320.558896  24183.388500  12769.377002   1656.640119
PE27 -22803.685491   6645.943611 -17655.238095    -61.138303
PE30 -28612.018433  -7547.481997    524.789570   2838.011822
PE31  28812.312415   6764.783701    464.833406   -482.546173
PE33   5619.567635  16623.422350  23836.823491   -468.687168
PE36  11957.139337 -24222.775859 -12097.908869   -225.276734
PG01   8925.152189 -19252.011125 -16017.962146    648.717812
PG02 -21961.953093  13927.236268  -4887.477866   -614.750527
PG03    -56.747477 -16032.847031 -21282.167327   -200.970476
PG04   1295.344740 -26147.748096  -4279.070700   -200.763493
PG05 -14219.205916   9554.257196  20188.787704    -45.894286
PG06 -21772.120442   3453.709122 -14804.063836     30.949346
PG07  -6141.607943 -14564.782727  21658.787617    186.209544
PG08   7084.711857 -21381.239594  13813.813408    -26.303644
PG09  -7488.958449 -24625.584530   6448.165590   -352.621950
PG10  23892.358887  11859.797060   1497.414882   -148.670752
PG12  -2226.107390  15558.690979 -21682.785796    -59.355349
PG13 -12915.788407  14333.399986  18057.635590    148.959559
PG14 -23326.042241 -12697.569200   1128.989143     62.628515
PG15  -4949.238735  22313.572552  12863.359995   -140.195971
PG16  19233.682481  -3179.230403  18000.555068   -346.343257
PG17 -12526.281339 -14589.108737 -17893.080374    463.417044
PG18   8454.461630  12441.517900  21876.582522    345.105022
PG19 -14630.664919  -5092.244561 -21876.209056     17.533995
PG20 -17599.946347   8515.193103  17795.858418    520.851424
PG21  15112.050687 -19783.825073  -7793.615051    127.073290
PG22   9329.888991 -13122.185362 -20915.292558   -580.464581
PG23  17375.815006  16236.528291  11863.717924     93.157151
PG24 -11936.752498  20758.198764 -11301.846932    146.696857
PG25  10750.362455  17801.613655 -16936.867645    161.589688
PG26  24763.212348   2344.163612   9627.554112    102.359181
PG27  12516.592236 -11571.165061  20085.757381   -152.282631
PG28 -23911.380403 -10188.010845  -4401.376964    549.314226
PG29   4503.455937  25489.429758   5772.915663   -369.350653
PG30 -17518.130182  -5325.153163  19384.101576   -442.837918
PG31  23131.118517  -4943.699167 -12619.680946   -124.864973
PG32  14672.134213  11257.079495 -19012.245040     17.242449
PJ01 -25897.245251  21994.917967  29991.567040   -401.897558
PJ02 -31483.533181  15021.483234 -19169.196837     -0.404727
PJ03 -22421.198483  33099.096865  -9002.888821     -9.005636
PJ07 -25394.325877  33664.573049      7.088387     -0.026396
PR01  14803.689030  20737.194297  -1025.477224     81.345320
PR02  15366.741703   7276.215712 -18993.852443    483.540469
PR03   6570.284531  -9620.343652 -22640.502567     38.266822
PR04  -5938.864019 -20762.087448 -13542.718556     92.723722
PR05 -14961.519308 -20410.010217   3132.469325     74.133830
PR07  -6104.722673  10281.047439  22578.113496    -42.245877
PR08   5895.204299  20828.791073  13567.553153    -59.663572
PR09 -25456.845273    789.094462   2027.713775     -0.501179
PR11  -2333.313011  10991.541042 -22887.623242    -14.943622
PR12  16747.795192   7436.605775 -17723.240984    239.785127
PR13  25351.720224   -482.949253  -2769.314432    -56.748507
PR14  19057.024286  -8324.639258  14772.682581     65.703664
PR15   1852.020628 -11079.513497  22923.959289    103.069228
PR16 -17698.098857  -6790.200421  16982.912930    -16.853045
PR17  14273.235808 -19330.411387   8619.233355    435.344786
PR18   7622.854781 -22843.946525  -8326.233069     81.122541
PR19  -2120.313287 -15043.582570 -20499.256258   -148.971671
PR20 -13073.731260   3862.153240 -21569.340415    -51.395685
PR21 -14052.872673  19924.758143  -7457.674561   -218.887118
PR22  -7231.586968  22680.420011   9270.787607   -119.279957
PR24  13615.111570  -4559.915921  21095.475323     47.779067
EOF
